STARLINK-3138           
1 49430U 21104Y   23236.57812555  .00000933  00000+0  76689-4 0  9996
2 49430  53.2173  75.5761 0001358 105.0821 255.0321 15.08837404 98520
STARLINK-3153           
1 49431U 21104Z   23236.56343507  .00000613  00000+0  56616-4 0  9995
2 49431  53.2173  75.8993 0001352  84.3748 275.7398 15.08841426 98513
STARLINK-3158           
1 49432U 21104AA  23236.94063913  .00000866  00000+0  72515-4 0  9994
2 49432  53.2168  63.9492 0001336  82.7160 277.3984 15.08843137 99793
STARLINK-3079           
1 49433U 21104AB  23236.54316638  .00000431  00000+0  45188-4 0  9990
2 49433  53.2175  55.7341 0001267  90.5882 269.5255 15.08837864 99889
STARLINK-3134           
1 49434U 21104AC  23236.97284063  .00001065  00000+0  84961-4 0  9990
2 49434  53.2168  73.8139 0001195  83.6875 276.4253 15.08842182 99663
STARLINK-3117           
1 49435U 21104AD  23236.54780333  .00001345  00000+0  10259-3 0  9994
2 49435  53.2166  55.7097 0001080  87.6072 272.5044 15.08836839 99870
STARLINK-3049           
1 49436U 21104AE  23236.48060757  .00000988  00000+0  80167-4 0  9997
2 49436  53.2163  56.0145 0001785  65.9372 294.1806 15.08836927 98783
STARLINK-3130           
1 49437U 21104AF  23236.87068072  .00001175  00000+0  91906-4 0  9991
2 49437  53.2147  54.2634 0001160  85.5411 274.5714 15.08842868 98846
STARLINK-3044           
1 49438U 21104AG  23236.46315356  .00001088  00000+0  86434-4 0  9990
2 49438  53.2191  56.0295 0001889  83.8963 276.2245 15.08840823 98780
STARLINK-3108           
1 49439U 21104AH  23236.91580272  .00002964  00000+0  20425-3 0  9993
2 49439  53.2171  54.0698 0001290  72.1210 287.9923 15.08843039 99949
STARLINK-3105           
1 49440U 21104AJ  23236.92956473  .00001755  00000+0  12830-3 0  9994
2 49440  53.2184  54.0000 0001217  93.4653 266.6478 15.08838141 98854
STARLINK-3128           
1 49441U 21104AK  23236.64620555 -.00000623  00000+0 -21060-4 0  9994
2 49441  53.2163  55.2698 0001091  93.8659 266.2458 15.08837766 98810
STARLINK-3098           
1 49442U 21104AL  23236.92588190  .00001537  00000+0  11464-3 0  9993
2 49442  53.2209  54.0157 0001524  81.9699 278.1466 15.08838859 99931
STARLINK-3136           
1 49443U 21104AM  23236.51004520  .00000361  00000+0  40782-4 0  9999
2 49443  53.2154  55.8815 0001387  82.0394 278.0755 15.08836237 98793
STARLINK-3126           
1 49444U 21104AN  23236.52572633  .00002322  00000+0  16393-3 0  9995
2 49444  53.2178  55.8225 0001068  88.9429 271.1685 15.08839915 98797
STARLINK-3122           
1 49445U 21104AP  23236.67104467  .00001258  00000+0  97136-4 0  9990
2 49445  53.2163  65.1568 0001228  86.0372 274.0760 15.08841619 98677
STARLINK-3099           
1 49446U 21104AQ  23237.44844633  .00001264  00000+0  97509-4 0  9994
2 49446  53.2177  51.6665 0001262  91.9505 268.1631 15.08837087100008
STARLINK-3115           
1 49447U 21104AR  23236.53120356  .00002385  00000+0  16790-3 0  9990
2 49447  53.2146  65.7914 0001913  60.2379 299.8803 15.08843985 98652
STARLINK-3097           
1 49448U 21104AS  23236.94432478  .00000109  00000+0  24922-4 0  9996
2 49448  53.2168  63.9758 0001324 101.6385 258.4755 15.08840805 99786
STARLINK-3137           
1 49449U 21104AT  23236.92496574  .00003083  00000+0  21174-3 0  9991
2 49449  53.2165  64.0215 0001548  86.4698 273.6471 15.08832204 99798
STARLINK-3127           
1 49450U 21104AU  23236.93327870  .00002320  00000+0  16380-3 0  9992
2 49450  53.2166  63.9878 0001293  99.9126 260.2012 15.08847429 98973
STARLINK-3125           
1 49451U 21104AV  23236.52384902  .00004596  00000+0  30660-3 0  9991
2 49451  53.2182  65.8179 0001026  90.4401 269.6709 15.08845808 98653
STARLINK-3150           
1 49452U 21104AW  23235.98288753  .00001193  00000+0  93028-4 0  9996
2 49452  53.2181  68.2758 0001186  85.6699 274.4428 15.08840647 98574
STARLINK-3129           
1 49453U 21104AX  23236.85600997  .00002388  00000+0  16807-3 0  9998
2 49453  53.2173  64.4173 0001359  89.8557 270.2591 15.08842881 99776
STARLINK-3160           
1 49454U 21104AY  23236.98384162  .00001541  00000+0  11490-3 0  9999
2 49454  53.2165  63.7515 0001269  90.2587 269.8551 15.08845302 99804
STARLINK-3145           
1 49455U 21104AZ  23236.96912117  .00002882  00000+0  19907-3 0  9995
2 49455  53.2173  63.8218 0000851  88.8423 271.2667 15.08846053 99790
STARLINK-3124           
1 49456U 21104BA  23236.98112772  .00000806  00000+0  68715-4 0  9993
2 49456  53.2171  63.8206 0001650  71.5199 288.5973 15.08845440 99793
STARLINK-3132           
1 49457U 21104BB  23236.96640134  .00001888  00000+0  13664-3 0  9993
2 49457  53.2163  63.8408 0001475  85.8024 274.3137 15.08846690 99792
STARLINK-3156           
1 49458U 21104BC  23236.57536564  .00003453  00000+0  23506-3 0  9998
2 49458  53.2182  65.5883 0001313  93.2051 266.9092 15.08824349 98663
STARLINK-3141           
1 49459U 21104BD  23236.63056617  .00000600  00000+0  55798-4 0  9992
2 49459  53.2183  65.3406 0001238  83.7256 276.3877 15.08836494 98672
STARLINK-3140           
1 49460U 21104BE  23236.89184185  .00001021  00000+0  82231-4 0  9994
2 49460  53.2176  64.1678 0001198  82.5753 277.5375 15.08838006 99799
GLOBAL-14               
1 49469U 21106A   23236.89943727  .00031578  00000+0  60311-3 0  9994
2 49469  42.0105 172.4415 0009069 204.6477 155.3934 15.47443378 99806
GLOBAL-15               
1 49470U 21106B   23237.10585980  .00021385  00000+0  53220-3 0  9990
2 49470  42.0063 209.2133 0011898 169.2375 190.8722 15.39743359 99401
GAOFEN 11-03            
1 49492U 21107A   23237.41581530  .00007039  00000+0  29741-3 0  9997
2 49492  97.3660 295.0784 0003514  56.8795 303.2779 15.23545266 98297
GAOFEN 3-02             
1 49495U 21109A   23237.46162449  .00000089  00000+0  40205-4 0  9998
2 49495  98.4149 243.8784 0001759 118.2223 241.9145 14.42210156 92323
SHIYAN 11 (SY-11)       
1 49501U 21112A   23237.43208589  .00009496  00000+0  31033-3 0  9992
2 49501  97.4387 251.0502 0010430 161.6369 198.5251 15.31896963 97406
COSMOS 2552             
1 49503U 21113A   23236.57897491 -.00000853  00000+0  00000+0 0  9990
2 49503  63.3858 314.2652 6924065 270.6426  17.4614  2.00610189 12797
CHINASAT 1D (ZX 1D)     
1 49505U 21114A   23236.93364057 -.00000331  00000+0  00000+0 0  9991
2 49505   0.3746 272.2118 0001629 273.1875 253.8195  1.00272292  6531
STARLINK-3219           
1 49724U 21115A   23236.47608246 -.00006267  00000+0 -37649-3 0  9993
2 49724  53.2203 356.0422 0002050  34.3920 325.7205 15.08791492 95401
STARLINK-3218           
1 49725U 21115B   23237.31413537  .00000336  00000+0  39183-4 0  9990
2 49725  53.2183 352.3765 0000908  97.0275 263.0820 15.08844143 96643
STARLINK-3237           
1 49726U 21115C   23236.47048471  .00006870  00000+0  44981-3 0  9998
2 49726  53.2178   6.0587 0001299  99.8904 260.2235 15.08800867 95267
STARLINK-3242           
1 49727U 21115D   23235.74552334  .00000742  00000+0  64718-4 0  9999
2 49727  53.2188   9.3078 0001240 112.7172 247.3951 15.08839044 96270
STARLINK-3240           
1 49728U 21115E   23237.40520242  .00006570  00000+0  43047-3 0  9994
2 49728  53.2170   1.8639 0001076  86.4660 273.6455 15.08843772 96519
STARLINK-3251           
1 49729U 21115F   23236.41624181  .00001471  00000+0  11049-3 0  9994
2 49729  53.2200   6.3152 0001171 104.4109 255.7013 15.08841548 95259
STARLINK-3249           
1 49730U 21115G   23236.88728351  .00000383  00000+0  42159-4 0  9999
2 49730  53.2184   4.1969 0000962  84.2458 275.8644 15.08845089 95328
STARLINK-3228           
1 49731U 21115H   23236.41896603 -.00000165  00000+0  77083-5 0  9999
2 49731  53.2187   6.2886 0000850  79.6065 280.5023 15.08842782 95254
STARLINK-3246           
1 49732U 21115J   23236.49719174  .00000772  00000+0  66556-4 0  9990
2 49732  53.2174   5.9102 0001182 129.8275 230.2821 15.08843789 95265
STARLINK-3252           
1 49733U 21115K   23236.36009438  .00014301  00000+0  91605-3 0  9997
2 49733  53.2193   6.5624 0001726  63.2208 296.8960 15.08788792 95246
STARLINK-3238           
1 49734U 21115L   23236.51188930  .00001071  00000+0  85338-4 0  9997
2 49734  53.2182 355.9002 0000963  79.2557 280.8543 15.08838312 96528
STARLINK-3113           
1 49735U 21115M   23237.42087654  .00006033  00000+0  39675-3 0  9995
2 49735  53.2175   1.7636 0001201  87.9200 272.1930 15.08846436 96516
STARLINK-3148           
1 49736U 21115N   23236.38772265  .00000536  00000+0  51754-4 0  9994
2 49736  53.2194 356.4413 0000980  96.8922 263.2181 15.08837948 95396
STARLINK-3225           
1 49737U 21115P   23236.44932844  .00000515  00000+0  50471-4 0  9995
2 49737  53.2182 356.1558 0001266  69.5894 290.5234 15.08837113 95402
STARLINK-3143           
1 49738U 21115Q   23237.31780515  .00000933  00000+0  76702-4 0  9998
2 49738  53.2179 352.2531 0001042  99.7008 260.4102 15.08842090 96648
STARLINK-3155           
1 49739U 21115R   23237.43096604  .00000348  00000+0  39942-4 0  9996
2 49739  53.2175   1.7520 0001243  68.7769 291.3356 15.08840698 96514
STARLINK-3226           
1 49740U 21115S   23237.45859500  .00000312  00000+0  37682-4 0  9992
2 49740  53.2188 351.5961 0001145  81.6337 278.4785 15.08844596 96660
STARLINK-3244           
1 49741U 21115T   23236.32884298  .00001025  00000+0  82497-4 0  9996
2 49741  53.2201 356.7038 0001050  93.3770 266.7342 15.08840557 95385
STARLINK-3202           
1 49742U 21115U   23236.80627978 -.00002676  00000+0 -14992-3 0  9999
2 49742  53.2185 354.5481 0001847 126.1549 233.9614 15.08874005 96562
STARLINK-3239           
1 49743U 21115V   23236.39139320  .00000703  00000+0  62275-4 0  9998
2 49743  53.2188 356.3461 0001078 104.9550 255.1562 15.08839876 95391
STARLINK-3231           
1 49744U 21115W   23236.47234623  .00000587  00000+0  54959-4 0  9990
2 49744  53.2184 355.9454 0001116  93.7834 266.3286 15.08841398 95409
